[{"OBJECT_NAME":"STARLINK-11503 [DTC]","OBJECT_ID":"2025-043L","EPOCH":"2026-03-09T13:01:31.008864","MEAN_MOTION":15.71237436,"ECCENTRICITY":0.0003387,"INCLINATION":43.0001,"RA_OF_ASC_NODE":251.1845,"ARG_OF_PERICENTER":221.1496,"MEAN_ANOMALY":138.9117,"EPHEMERIS_TYPE":0,"CLASSIFICATION_TYPE":"U","NORAD_CAT_ID":63142,"ELEMENT_SET_NO":999,"REV_AT_EPOCH":5927,"BSTAR":0.0028936836,"MEAN_MOTION_DOT":0.0039564,"MEAN_MOTION_DDOT":0},{"OBJECT_NAME":"OBJECT AC","OBJECT_ID":"2021-022AC","EPOCH":"2026-03-09T23:52:41.913120","MEAN_MOTION":15.70257251,"ECCENTRICITY":0.00077249,"INCLINATION":97.3906,"RA_OF_ASC_NODE":343.806,"ARG_OF_PERICENTER":62.9634,"MEAN_ANOMALY":297.2416,"EPHEMERIS_TYPE":0,"CLASSIFICATION_TYPE":"U","NORAD_CAT_ID":47958,"ELEMENT_SET_NO":999,"REV_AT_EPOCH":27427,"BSTAR":0.0010525747,"MEAN_MOTION_DOT":0.00129469,"MEAN_MOTION_DDOT":0}]
